[{"OBJECT_NAME":"STARLINK-36201","OBJECT_ID":"2025-303B","EPOCH":"2026-03-09T01:30:50.944032","MEAN_MOTION":15.2758111,"ECCENTRICITY":0.00026172,"INCLINATION":43.0035,"RA_OF_ASC_NODE":313.8854,"ARG_OF_PERICENTER":255.6496,"MEAN_ANOMALY":104.4066,"EPHEMERIS_TYPE":0,"CLASSIFICATION_TYPE":"U","NORAD_CAT_ID":67164,"ELEMENT_SET_NO":999,"REV_AT_EPOCH":1264,"BSTAR":0.0016085417,"MEAN_MOTION_DOT":0.00044271,"MEAN_MOTION_DDOT":0},{"OBJECT_NAME":"OBJECT F","OBJECT_ID":"2021-022F","EPOCH":"2026-03-09T23:37:37.165152","MEAN_MOTION":15.31317672,"ECCENTRICITY":0.00120882,"INCLINATION":97.3982,"RA_OF_ASC_NODE":329.8375,"ARG_OF_PERICENTER":85.9268,"MEAN_ANOMALY":274.3355,"EPHEMERIS_TYPE":0,"CLASSIFICATION_TYPE":"U","NORAD_CAT_ID":47937,"ELEMENT_SET_NO":999,"REV_AT_EPOCH":27452,"BSTAR":0.00038690553,"MEAN_MOTION_DOT":0.00011656,"MEAN_MOTION_DDOT":0}]
